CCSDS_OMM_VERS = 2.0
CREATION_DATE  = 
ORIGINATOR     = 

OBJECT_NAME    = UNKNOWN
OBJECT_ID      = 
CENTER_NAME    = EARTH
REF_FRAME      = TEME
TIME_SYSTEM    = UTC
MEAN_ELEMENT_THEORY = SGP/SGP4

EPOCH          = 2025-11-25T06:52:54.772320
MEAN_MOTION    = 12.98516928
ECCENTRICITY   = .0029261
INCLINATION    = 90.2146
RA_OF_ASC_NODE = 343.5418
ARG_OF_PERICENTER = 189.9738
MEAN_ANOMALY   = 170.0806

EPHEMERIS_TYPE = 0
CLASSIFICATION_TYPE = U
NORAD_CAT_ID   = 270054
ELEMENT_SET_NO = 999
REV_AT_EPOCH   = 28405
BSTAR          = .12107609E-2
MEAN_MOTION_DOT = .365E-5
MEAN_MOTION_DDOT = 0

CCSDS_OMM_VERS = 2.0
CREATION_DATE  = 
ORIGINATOR     = 

OBJECT_NAME    = UNKNOWN
OBJECT_ID      = 
CENTER_NAME    = EARTH
REF_FRAME      = TEME
TIME_SYSTEM    = UTC
MEAN_ELEMENT_THEORY = SGP/SGP4

EPOCH          = 2025-11-15T09:45:12.426912
MEAN_MOTION    = 12.99245631
ECCENTRICITY   = .00301133
INCLINATION    = 90.2454
RA_OF_ASC_NODE = 0.2414
ARG_OF_PERICENTER = 200.0580
MEAN_ANOMALY   = 159.9360

EPHEMERIS_TYPE = 0
CLASSIFICATION_TYPE = U
NORAD_CAT_ID   = 270055
ELEMENT_SET_NO = 999
REV_AT_EPOCH   = 28305
BSTAR          = .28441614E-2
MEAN_MOTION_DOT = .855E-5
MEAN_MOTION_DDOT = 0

CCSDS_OMM_VERS = 2.0
CREATION_DATE  = 
ORIGINATOR     = 

OBJECT_NAME    = UNKNOWN
OBJECT_ID      = 
CENTER_NAME    = EARTH
REF_FRAME      = TEME
TIME_SYSTEM    = UTC
MEAN_ELEMENT_THEORY = SGP/SGP4

EPOCH          = 2025-11-19T00:45:06.091200
MEAN_MOTION    = 12.46152766
ECCENTRICITY   = .00898984
INCLINATION    = 101.5904
RA_OF_ASC_NODE = 59.4030
ARG_OF_PERICENTER = 186.9547
MEAN_ANOMALY   = 173.0279

EPHEMERIS_TYPE = 0
CLASSIFICATION_TYPE = U
NORAD_CAT_ID   = 270056
ELEMENT_SET_NO = 999
REV_AT_EPOCH   = 27200
BSTAR          = .30547418E-2
MEAN_MOTION_DOT = .405E-5
MEAN_MOTION_DDOT = 0

CCSDS_OMM_VERS = 2.0
CREATION_DATE  = 
ORIGINATOR     = 

OBJECT_NAME    = UNKNOWN
OBJECT_ID      = 
CENTER_NAME    = EARTH
REF_FRAME      = TEME
TIME_SYSTEM    = UTC
MEAN_ELEMENT_THEORY = SGP/SGP4

EPOCH          = 2025-11-24T20:12:40.967712
MEAN_MOTION    = 12.95987844
ECCENTRICITY   = .00427651
INCLINATION    = 90.2513
RA_OF_ASC_NODE = 8.6281
ARG_OF_PERICENTER = 331.2505
MEAN_ANOMALY   = 28.6258

EPHEMERIS_TYPE = 0
CLASSIFICATION_TYPE = U
NORAD_CAT_ID   = 270057
ELEMENT_SET_NO = 999
REV_AT_EPOCH   = 28367
BSTAR          = -.11775171E-2
MEAN_MOTION_DOT = -.329E-5
MEAN_MOTION_DDOT = 0

CCSDS_OMM_VERS = 2.0
CREATION_DATE  = 
ORIGINATOR     = 

OBJECT_NAME    = UNKNOWN
OBJECT_ID      = 
CENTER_NAME    = EARTH
REF_FRAME      = TEME
TIME_SYSTEM    = UTC
MEAN_ELEMENT_THEORY = SGP/SGP4

EPOCH          = 2025-11-25T19:02:27.022848
MEAN_MOTION    = 12.97920989
ECCENTRICITY   = .00280274
INCLINATION    = 90.2348
RA_OF_ASC_NODE = 0.8986
ARG_OF_PERICENTER = 211.8790
MEAN_ANOMALY   = 148.0635

EPHEMERIS_TYPE = 0
CLASSIFICATION_TYPE = U
NORAD_CAT_ID   = 270058
ELEMENT_SET_NO = 999
REV_AT_EPOCH   = 28415
BSTAR          = .11904107E-2
MEAN_MOTION_DOT = .356E-5
MEAN_MOTION_DDOT = 0

CCSDS_OMM_VERS = 2.0
CREATION_DATE  = 
ORIGINATOR     = 

OBJECT_NAME    = UNKNOWN
OBJECT_ID      = 
CENTER_NAME    = EARTH
REF_FRAME      = TEME
TIME_SYSTEM    = UTC
MEAN_ELEMENT_THEORY = SGP/SGP4

EPOCH          = 2025-11-24T23:32:41.048160
MEAN_MOTION    = 12.22999192
ECCENTRICITY   = .01289461
INCLINATION    = 73.9967
RA_OF_ASC_NODE = 67.4947
ARG_OF_PERICENTER = 61.9485
MEAN_ANOMALY   = 299.4522

EPHEMERIS_TYPE = 0
CLASSIFICATION_TYPE = U
NORAD_CAT_ID   = 270059
ELEMENT_SET_NO = 999
REV_AT_EPOCH   = 26781
BSTAR          = .15071098E-3
MEAN_MOTION_DOT = .2E-7
MEAN_MOTION_DDOT = 0

CCSDS_OMM_VERS = 2.0
CREATION_DATE  = 
ORIGINATOR     = 

OBJECT_NAME    = UNKNOWN
OBJECT_ID      = 
CENTER_NAME    = EARTH
REF_FRAME      = TEME
TIME_SYSTEM    = UTC
MEAN_ELEMENT_THEORY = SGP/SGP4

EPOCH          = 2025-11-06T05:30:24.753888
MEAN_MOTION    = 13.49285873
ECCENTRICITY   = .05381489
INCLINATION    = 30.1016
RA_OF_ASC_NODE = 285.5364
ARG_OF_PERICENTER = 183.8208
MEAN_ANOMALY   = 175.8144

EPHEMERIS_TYPE = 0
CLASSIFICATION_TYPE = U
NORAD_CAT_ID   = 270060
ELEMENT_SET_NO = 999
REV_AT_EPOCH   = 29109
BSTAR          = .15380355E-2
MEAN_MOTION_DOT = .2483E-4
MEAN_MOTION_DDOT = 0

CCSDS_OMM_VERS = 2.0
CREATION_DATE  = 
ORIGINATOR     = 

OBJECT_NAME    = UNKNOWN
OBJECT_ID      = 
CENTER_NAME    = EARTH
REF_FRAME      = TEME
TIME_SYSTEM    = UTC
MEAN_ELEMENT_THEORY = SGP/SGP4

EPOCH          = 2025-11-20T00:40:21.157824
MEAN_MOTION    = 12.22038676
ECCENTRICITY   = .0530445
INCLINATION    = 82.0580
RA_OF_ASC_NODE = 82.6056
ARG_OF_PERICENTER = 166.1678
MEAN_ANOMALY   = 195.4592

EPHEMERIS_TYPE = 0
CLASSIFICATION_TYPE = U
NORAD_CAT_ID   = 270061
ELEMENT_SET_NO = 999
REV_AT_EPOCH   = 26619
BSTAR          = .12947559E-2
MEAN_MOTION_DOT = .226E-5
MEAN_MOTION_DDOT = 0

CCSDS_OMM_VERS = 2.0
CREATION_DATE  = 
ORIGINATOR     = 

OBJECT_NAME    = UNKNOWN
OBJECT_ID      = 
CENTER_NAME    = EARTH
REF_FRAME      = TEME
TIME_SYSTEM    = UTC
MEAN_ELEMENT_THEORY = SGP/SGP4

EPOCH          = 2025-11-25T13:39:54.146016
MEAN_MOTION    = 14.24186885
ECCENTRICITY   = .00368001
INCLINATION    = 98.8396
RA_OF_ASC_NODE = 276.7908
ARG_OF_PERICENTER = 111.1031
MEAN_ANOMALY   = 249.4087

EPHEMERIS_TYPE = 0
CLASSIFICATION_TYPE = U
NORAD_CAT_ID   = 270063
ELEMENT_SET_NO = 999
REV_AT_EPOCH   = 31160
BSTAR          = .20136442E-3
MEAN_MOTION_DOT = .422E-5
MEAN_MOTION_DDOT = 0

CCSDS_OMM_VERS = 2.0
CREATION_DATE  = 
ORIGINATOR     = 

OBJECT_NAME    = UNKNOWN
OBJECT_ID      = 
CENTER_NAME    = EARTH
REF_FRAME      = TEME
TIME_SYSTEM    = UTC
MEAN_ELEMENT_THEORY = SGP/SGP4

EPOCH          = 2025-11-24T21:28:05.690784
MEAN_MOTION    = 14.47437538
ECCENTRICITY   = .00114354
INCLINATION    = 97.9906
RA_OF_ASC_NODE = 196.3631
ARG_OF_PERICENTER = 147.1690
MEAN_ANOMALY   = 213.0216

EPHEMERIS_TYPE = 0
CLASSIFICATION_TYPE = U
NORAD_CAT_ID   = 270064
ELEMENT_SET_NO = 999
REV_AT_EPOCH   = 31591
BSTAR          = .20014885E-3
MEAN_MOTION_DOT = .695E-5
MEAN_MOTION_DDOT = 0

CCSDS_OMM_VERS = 2.0
CREATION_DATE  = 
ORIGINATOR     = 

OBJECT_NAME    = UNKNOWN
OBJECT_ID      = 
CENTER_NAME    = EARTH
REF_FRAME      = TEME
TIME_SYSTEM    = UTC
MEAN_ELEMENT_THEORY = SGP/SGP4

EPOCH          = 2025-11-19T14:29:42.547488
MEAN_MOTION    = 12.22964773
ECCENTRICITY   = .01316758
INCLINATION    = 74.0013
RA_OF_ASC_NODE = 75.6893
ARG_OF_PERICENTER = 70.7701
MEAN_ANOMALY   = 290.7528

EPHEMERIS_TYPE = 0
CLASSIFICATION_TYPE = U
NORAD_CAT_ID   = 270065
ELEMENT_SET_NO = 999
REV_AT_EPOCH   = 26709
BSTAR          = .5554467E-5
MEAN_MOTION_DOT = -.13E-6
MEAN_MOTION_DDOT = 0

CCSDS_OMM_VERS = 2.0
CREATION_DATE  = 
ORIGINATOR     = 

OBJECT_NAME    = UNKNOWN
OBJECT_ID      = 
CENTER_NAME    = EARTH
REF_FRAME      = TEME
TIME_SYSTEM    = UTC
MEAN_ELEMENT_THEORY = SGP/SGP4

EPOCH          = 2025-11-20T15:42:01.986624
MEAN_MOTION    = 14.62787375
ECCENTRICITY   = .00098628
INCLINATION    = 32.2207
RA_OF_ASC_NODE = 80.5563
ARG_OF_PERICENTER = 193.1634
MEAN_ANOMALY   = 166.8757

EPHEMERIS_TYPE = 0
CLASSIFICATION_TYPE = U
NORAD_CAT_ID   = 270066
ELEMENT_SET_NO = 999
REV_AT_EPOCH   = 31995
BSTAR          = .12906838E-3
MEAN_MOTION_DOT = .706E-5
MEAN_MOTION_DDOT = 0

CCSDS_OMM_VERS = 2.0
CREATION_DATE  = 
ORIGINATOR     = 

OBJECT_NAME    = UNKNOWN
OBJECT_ID      = 
CENTER_NAME    = EARTH
REF_FRAME      = TEME
TIME_SYSTEM    = UTC
MEAN_ELEMENT_THEORY = SGP/SGP4

EPOCH          = 2025-11-26T01:38:16.984032
MEAN_MOTION    = 12.96449303
ECCENTRICITY   = .00282557
INCLINATION    = 90.2495
RA_OF_ASC_NODE = 9.2218
ARG_OF_PERICENTER = 294.6921
MEAN_ANOMALY   = 65.1258

EPHEMERIS_TYPE = 0
CLASSIFICATION_TYPE = U
NORAD_CAT_ID   = 270067
ELEMENT_SET_NO = 999
REV_AT_EPOCH   = 28387
BSTAR          = -.39145697E-3
MEAN_MOTION_DOT = -.105E-5
MEAN_MOTION_DDOT = 0

CCSDS_OMM_VERS = 2.0
CREATION_DATE  = 
ORIGINATOR     = 

OBJECT_NAME    = UNKNOWN
OBJECT_ID      = 
CENTER_NAME    = EARTH
REF_FRAME      = TEME
TIME_SYSTEM    = UTC
MEAN_ELEMENT_THEORY = SGP/SGP4

EPOCH          = 2025-11-19T08:39:10.631808
MEAN_MOTION    = 12.67803254
ECCENTRICITY   = .07786889
INCLINATION    = 73.1514
RA_OF_ASC_NODE = 192.8223
ARG_OF_PERICENTER = 181.7634
MEAN_ANOMALY   = 178.0650

EPHEMERIS_TYPE = 0
CLASSIFICATION_TYPE = U
NORAD_CAT_ID   = 270068
ELEMENT_SET_NO = 999
REV_AT_EPOCH   = 27576
BSTAR          = .16122239E-2
MEAN_MOTION_DOT = .1031E-4
MEAN_MOTION_DDOT = 0

CCSDS_OMM_VERS = 2.0
CREATION_DATE  = 
ORIGINATOR     = 

OBJECT_NAME    = UNKNOWN
OBJECT_ID      = 
CENTER_NAME    = EARTH
REF_FRAME      = TEME
TIME_SYSTEM    = UTC
MEAN_ELEMENT_THEORY = SGP/SGP4

EPOCH          = 2025-11-05T03:58:21.916416
MEAN_MOTION    = 14.10492885
ECCENTRICITY   = .00610801
INCLINATION    = 46.9551
RA_OF_ASC_NODE = 119.7217
ARG_OF_PERICENTER = 171.4926
MEAN_ANOMALY   = 188.6988

EPHEMERIS_TYPE = 0
CLASSIFICATION_TYPE = U
NORAD_CAT_ID   = 270069
ELEMENT_SET_NO = 999
REV_AT_EPOCH   = 30282
BSTAR          = .40534664E-2
MEAN_MOTION_DOT = .7257E-4
MEAN_MOTION_DDOT = 0

CCSDS_OMM_VERS = 2.0
CREATION_DATE  = 
ORIGINATOR     = 

OBJECT_NAME    = UNKNOWN
OBJECT_ID      = 
CENTER_NAME    = EARTH
REF_FRAME      = TEME
TIME_SYSTEM    = UTC
MEAN_ELEMENT_THEORY = SGP/SGP4

EPOCH          = 2025-11-16T05:53:58.084224
MEAN_MOTION    = 13.50022676
ECCENTRICITY   = .07174333
INCLINATION    = 62.7999
RA_OF_ASC_NODE = 155.5091
ARG_OF_PERICENTER = 342.7900
MEAN_ANOMALY   = 14.9887

EPHEMERIS_TYPE = 0
CLASSIFICATION_TYPE = U
NORAD_CAT_ID   = 270070
ELEMENT_SET_NO = 999
REV_AT_EPOCH   = 29368
BSTAR          = .48652975E-3
MEAN_MOTION_DOT = .1503E-4
MEAN_MOTION_DDOT = 0

